NORAD_CAT_ID,OBJECT_NAME,OBJECT_TYPE,EPOCH,MEAN_MOTION,ECCENTRICITY,INCLINATION,RA_OF_ASC_NODE,ARG_OF_PERICENTER,MEAN_ANOMALY,BSTAR,MEAN_MOTION_DOT,MEAN_MOTION_DDOT,TLE_LINE0,TLE_LINE1,TLE_LINE2,SEMIMAJOR_AXIS,PERIOD,APOGEE,PERIGEE,DECAYED
52475.0,STARLINK-3882,PAYLOAD,2024-08-20 23:18:26,15.08857876,0.0001582,53.2154,78.9514,80.439,279.6781,0.00086938,0.00013582,0.0,0 STARLINK-3882,1 52475U 22049AA  24233.97114112  .00013582  00000-0  86938-3 0  9996,2 52475  53.2154  78.9514 0001582  80.4390 279.6781 15.08857876127004,6917.826,95.436,540.785,538.596,0.0
52475.0,STARLINK-3882,PAYLOAD,2024-08-21 19:58:27,15.08844411,0.0001407,53.2157,75.0846,88.1187,271.9966,0.00023662,3.48e-05,0.0,0 STARLINK-3882,1 52475U 22049AA  24234.83226396  .00003480  00000-0  23662-3 0  9991,2 52475  53.2157  75.0846 0001407  88.1187 271.9966 15.08844411126974,6917.867,95.437,540.705,538.759,0.0
52475.0,STARLINK-3882,PAYLOAD,2024-08-21 23:09:13,15.08846017,0.0001386,53.216,74.4894,85.1378,274.9773,0.0003222,4.844e-05,0.0,0 STARLINK-3882,1 52475U 22049AA  24234.96474403  .00004844  00000-0  32220-3 0  9994,2 52475  53.2160  74.4894 0001386  85.1378 274.9773 15.08846017127153,6917.862,95.437,540.686,538.768,0.0
